NORAD_CAT_ID,OBJECT_NAME,OBJECT_TYPE,EPOCH,MEAN_MOTION,ECCENTRICITY,INCLINATION,RA_OF_ASC_NODE,ARG_OF_PERICENTER,MEAN_ANOMALY,BSTAR,MEAN_MOTION_DOT,MEAN_MOTION_DDOT,TLE_LINE0,TLE_LINE1,TLE_LINE2,SEMIMAJOR_AXIS,PERIOD,APOGEE,PERIGEE,DECAYED
54095.0,STARLINK-5193,PAYLOAD,2024-02-09 11:29:24,15.08848377,0.0001638,53.217,142.0256,75.7353,284.3821,0.0001593,2.249e-05,0.0,0 STARLINK-5193,1 54095U 22136AW  24040.47876075  .00002249  00000-0  15930-3 0  9999,2 54095  53.2170 142.0256 0001638  75.7353 284.3821 15.08848377 72841,6917.855,95.437,540.853,538.587,0.0
54095.0,STARLINK-5193,PAYLOAD,2024-02-09 13:04:47,15.0885002,0.0001638,53.217,141.7281,75.8788,284.2386,0.00017465,2.493e-05,0.0,0 STARLINK-5193,1 54095U 22136AW  24040.54499963  .00002493  00000-0  17465-3 0  9990,2 54095  53.2170 141.7281 0001638  75.8788 284.2386 15.08850020 72380,6917.85,95.437,540.848,538.582,0.0
54095.0,STARLINK-5193,PAYLOAD,2024-02-10 11:20:12,15.08838885,0.0001527,53.2168,137.5658,88.5215,271.5952,0.00016378,2.319e-05,0.0,0 STARLINK-5193,1 54095U 22136AW  24041.47236779  .00002319  00000-0  16378-3 0  9996,2 54095  53.2168 137.5658 0001527  88.5215 271.5952 15.08838885 72991,6917.884,95.438,540.805,538.692,0.0
54095.0,STARLINK-5193,PAYLOAD,2024-02-10 12:55:35,15.08846591,0.0001508,53.2172,137.2718,91.3726,268.7438,7.4972e-05,9.06e-06,0.0,0 STARLINK-5193,1 54095U 22136AW  24041.53860596  .00000906  00000-0  74972-4 0  9998,2 54095  53.2172 137.2718 0001508  91.3726 268.7438 15.08846591 72538,6917.86,95.437,540.768,538.682,0.0
54095.0,STARLINK-5193,PAYLOAD,2024-02-10 16:06:21,15.08846398,0.0001373,53.2164,136.6685,92.255,267.86,9.8472e-05,1.28e-05,0.0,0 STARLINK-5193,1 54095U 22136AW  24041.67108399  .00001280  00000-0  98472-4 0  9996,2 54095  53.2164 136.6685 0001373  92.2550 267.8600 15.08846398 72558,6917.861,95.437,540.676,538.776,0.0
54095.0,STARLINK-5193,PAYLOAD,2024-02-11 11:10:59,15.08851186,0.0001478,53.2169,133.0984,95.5414,264.5747,-6.3545e-05,-1.299e-05,0.0,0 STARLINK-5193,1 54095U 22136AW  24042.46596326 -.00001299  00000-0 -63545-4 0  9990,2 54095  53.2169 133.0984 0001478  95.5414 264.5747 15.08851186 72677,6917.846,95.437,540.734,538.689,0.0
54095.0,STARLINK-5193,PAYLOAD,2024-02-11 15:57:08,15.08855971,0.0001687,53.2171,132.2046,105.0931,255.0248,-3.6877e-05,-8.75e-06,0.0,0 STARLINK-5193,1 54095U 22136AW  24042.66467772 -.00000875  00000-0 -36877-4 0  9991,2 54095  53.2171 132.2046 0001687 105.0931 255.0248 15.08855971 73176,6917.832,95.437,540.864,538.53,0.0
54095.0,STARLINK-5193,PAYLOAD,2024-02-12 11:01:45,15.08848278,0.0001724,53.2169,128.6397,106.8844,253.2337,0.00012466,1.697e-05,0.0,0 STARLINK-5193,1 54095U 22136AW  24043.45955685  .00001697  00000-0  12466-3 0  9992,2 54095  53.2169 128.6397 0001724 106.8844 253.2337 15.08848278 73299,6917.855,95.437,540.913,538.527,0.0
54095.0,STARLINK-5193,PAYLOAD,2024-02-12 12:37:08,15.08849266,0.0001613,53.2173,128.3427,96.4954,263.6222,0.00013906,1.926e-05,0.0,0 STARLINK-5193,1 54095U 22136AW  24043.52579647  .00001926  00000-0  13906-3 0  9995,2 54095  53.2173 128.3427 0001613  96.4954 263.6222 15.08849266 72833,6917.852,95.437,540.833,538.601,0.0
54095.0,STARLINK-5193,PAYLOAD,2024-02-13 12:27:57,15.08840043,0.0001357,53.2172,123.8872,99.2972,260.8174,-0.0001151,-2.119e-05,0.0,0 STARLINK-5193,1 54095U 22136AW  24044.51941224 -.00002119  00000-0 -11510-3 0  9995,2 54095  53.2172 123.8872 0001357  99.2972 260.8174 15.08840043 73450,6917.88,95.438,540.684,538.807,0.0
54095.0,STARLINK-5193,PAYLOAD,2024-02-13 14:03:20,15.08842616,0.0001434,53.2178,123.588,97.9844,262.1311,-5.6292e-05,-1.184e-05,0.0,0 STARLINK-5193,1 54095U 22136AW  24044.58564968 -.00001184  00000-0 -56292-4 0  9996,2 54095  53.2178 123.5880 0001434  97.9844 262.1311 15.08842616 72995,6917.872,95.437,540.729,538.745,0.0
54095.0,STARLINK-5193,PAYLOAD,2024-02-13 22:00:15,15.08845466,0.0001472,53.2179,122.1013,85.6971,274.4189,-2.9929e-05,-7.64e-06,0.0,0 STARLINK-5193,1 54095U 22136AW  24044.91684768 -.00000764  00000-0 -29929-4 0  9994,2 54095  53.2179 122.1013 0001472  85.6971 274.4189 15.08845466 73048,6917.864,95.437,540.747,538.71,0.0
54095.0,STARLINK-5193,PAYLOAD,2024-02-14 12:18:43,15.0885212,0.0001513,53.2159,119.4229,82.545,277.5714,0.00020222,2.933e-05,0.0,0 STARLINK-5193,1 54095U 22136AW  24045.51300049  .00002933  00000-0  20222-3 0  9992,2 54095  53.2159 119.4229 0001513  82.5450 277.5714 15.08852120 73131,6917.843,95.437,540.755,538.662,0.0
54095.0,STARLINK-5193,PAYLOAD,2024-02-14 15:29:29,15.08854184,0.0001494,53.2158,118.8283,91.8,268.3164,0.00023301,3.424e-05,0.0,0 STARLINK-5193,1 54095U 22136AW  24045.64547861  .00003424  00000-0  23301-3 0  9998,2 54095  53.2158 118.8283 0001494  91.8000 268.3164 15.08854184 73628,6917.837,95.437,540.736,538.669,0.0
54095.0,STARLINK-5193,PAYLOAD,2024-02-14 21:51:03,15.08827419,0.0001844,53.2167,117.6391,97.3586,262.7616,-3.5195e-05,-8.48e-06,0.0,0 STARLINK-5193,1 54095U 22136AW  24045.91045508 -.00000848  00000-0 -35195-4 0  9993,2 54095  53.2167 117.6391 0001844  97.3586 262.7616 15.08827419 73197,6917.919,95.438,541.06,538.508,0.0
54095.0,STARLINK-5193,PAYLOAD,2024-02-15 13:44:54,15.08843243,0.0001362,53.2157,114.6658,99.7389,260.3757,0.00015295,2.147e-05,0.0,0 STARLINK-5193,1 54095U 22136AW  24046.57285071  .00002147  00000-0  15295-3 0  9997,2 54095  53.2157 114.6658 0001362  99.7389 260.3757 15.08843243 73295,6917.87,95.437,540.678,538.793,0.0
54095.0,STARLINK-5193,PAYLOAD,2024-02-16 10:24:54,15.08849967,0.0001318,53.2155,110.799,95.5478,264.5664,0.00021246,3.096e-05,0.0,0 STARLINK-5193,1 54095U 22136AW  24047.43396561  .00003096  00000-0  21246-3 0  9997,2 54095  53.2155 110.7990 0001318  95.5478 264.5664 15.08849967 73420,6917.85,95.437,540.627,538.803,0.0
54095.0,STARLINK-5193,PAYLOAD,2024-02-17 10:15:41,15.08845058,0.0001821,53.2178,106.3373,104.7473,255.3721,0.00018949,2.729e-05,0.0,0 STARLINK-5193,1 54095U 22136AW  24048.42756743  .00002729  00000-0  18949-3 0  9997,2 54095  53.2178 106.3373 0001821 104.7473 255.3721 15.08845058 74046,6917.865,95.437,540.99,538.47,0.0
54095.0,STARLINK-5193,PAYLOAD,2024-02-17 21:23:24,15.0883617,0.0001445,53.2149,104.2565,105.8939,254.2212,-5.4266e-05,-1.151e-05,0.0,0 STARLINK-5193,1 54095U 22136AW  24048.89125101 -.00001151  00000-0 -54266-4 0  9999,2 54095  53.2149 104.2565 0001445 105.8939 254.2212 15.08836170 73648,6917.892,95.438,540.757,538.757,0.0
54095.0,STARLINK-5193,PAYLOAD,2024-02-18 03:44:57,15.08842809,0.0001532,53.2165,103.0672,104.157,255.9592,-0.00017678,-3.101e-05,0.0,0 STARLINK-5193,1 54095U 22136AW  24049.15621675 -.00003101  00000-0 -17678-3 0  9998,2 54095  53.2165 103.0672 0001532 104.1570 255.9592 15.08842809 74154,6917.872,95.437,540.797,538.677,0.0
54095.0,STARLINK-5193,PAYLOAD,2024-02-18 10:06:29,15.08844653,0.0001667,53.2171,101.8792,96.9347,263.1835,-0.00014058,-2.525e-05,0.0,0 STARLINK-5193,1 54095U 22136AW  24049.42117286 -.00002525  00000-0 -14058-3 0  9994,2 54095  53.2171 101.8792 0001667  96.9347 263.1835 15.08844653 73721,6917.866,95.437,540.884,538.578,0.0
54095.0,STARLINK-5193,PAYLOAD,2024-02-19 09:57:16,15.08839921,0.0001559,53.2166,97.4197,99.0685,261.0484,0.00010305,1.352e-05,0.0,0 STARLINK-5193,1 54095U 22136AW  24050.41477337  .00001352  00000-0  10305-3 0  9997,2 54095  53.2166  97.4197 0001559  99.0685 261.0484 15.08839921 74341,6917.881,95.438,540.824,538.667,0.0
54095.0,STARLINK-5193,PAYLOAD,2024-02-19 19:29:35,15.08838015,0.0001507,53.2163,95.6349,97.4423,262.6741,6.7929e-05,7.93e-06,0.0,0 STARLINK-5193,1 54095U 22136AW  24050.81221626  .00000793  00000-0  67929-4 0  9992,2 54095  53.2163  95.6349 0001507  97.4423 262.6741 15.08838015 73932,6917.886,95.438,540.794,538.709,0.0
54095.0,STARLINK-5193,PAYLOAD,2024-02-20 03:26:32,15.08823718,0.000158,53.2172,94.1492,89.997,270.1203,0.00012546,1.708e-05,0.0,0 STARLINK-5193,1 54095U 22136AW  24051.14342645  .00001708  00000-0  12546-3 0  9995,2 54095  53.2172  94.1492 0001580  89.9970 270.1203 15.08823718 74458,6917.93,95.439,540.888,538.702,0.0
54095.0,STARLINK-5193,PAYLOAD,2024-02-20 09:48:04,15.0882947,0.0001641,53.2171,92.9622,92.5027,267.6153,0.00010769,1.426e-05,0.0,0 STARLINK-5193,1 54095U 22136AW  24051.40838587  .00001426  00000-0  10769-3 0  9991,2 54095  53.2171  92.9622 0001641  92.5027 267.6153 15.08829470 74028,6917.913,95.438,540.913,538.642,0.0
54095.0,STARLINK-5193,PAYLOAD,2024-02-20 19:20:23,15.08836771,0.0001642,53.2172,91.1781,98.1993,261.9185,2.5129e-05,1.12e-06,0.0,0 STARLINK-5193,1 54095U 22136AW  24051.80582441  .00000112  00000-0  25129-4 0  9998,2 54095  53.2172  91.1781 0001642  98.1993 261.9185 15.08836771 74553,6917.89,95.438,540.891,538.619,0.0
54095.0,STARLINK-5193,PAYLOAD,2024-02-21 09:38:50,15.08843735,0.0001604,53.2167,88.5004,99.0565,261.0608,9.2122e-05,1.179e-05,0.0,0 STARLINK-5193,1 54095U 22136AW  24052.40197881  .00001179  00000-0  92122-4 0  9996,2 54095  53.2167  88.5004 0001604  99.0565 261.0608 15.08843735 74647,6917.869,95.437,540.844,538.624,0.0
54095.0,STARLINK-5193,PAYLOAD,2024-02-21 19:11:10,15.08839071,0.0001406,53.2159,86.7151,93.2091,266.9062,4.7673e-05,4.71e-06,0.0,0 STARLINK-5193,1 54095U 22136AW  24052.79942221  .00000471  00000-0  47673-4 0  9999,2 54095  53.2159  86.7151 0001406  93.2091 266.9062 15.08839071 74232,6917.883,95.438,540.721,538.776,0.0
54095.0,STARLINK-5193,PAYLOAD,2024-02-22 09:29:36,15.08856491,0.0001736,53.2168,84.0383,109.0046,251.1134,0.0002106,3.067e-05,0.0,0 STARLINK-5193,1 54095U 22136AW  24053.39556613  .00003067  00000-0  21060-3 0  9997,2 54095  53.2168  84.0383 0001736 109.0046 251.1134 15.08856491 74794,6917.83,95.437,540.896,538.494,0.0
54095.0,STARLINK-5193,PAYLOAD,2024-02-22 19:01:56,15.08849863,0.0001678,53.2169,82.2546,80.0351,280.083,0.00016626,2.36e-05,0.0,0 STARLINK-5193,1 54095U 22136AW  24053.79301086  .00002360  00000-0  16626-3 0  9990,2 54095  53.2169  82.2546 0001678  80.0351 280.0830 15.08849863 74854,6917.85,95.437,540.876,538.554,0.0
